STARLINK-36762          
1 67868U 26034U   26064.66667824 -.00384171  00000+0 -20135-2 0  9991
2 67868  53.1633 231.3581 0001164  89.7845 239.6348 15.81054414  3218
STARLINK-36779          
1 67869U 26034V   26064.66667824 -.00060165  00000+0 -30301-3 0  9993
2 67869  53.1595 231.3488 0001249  84.3046 249.3047 15.80900567  3212
STARLINK-36770          
1 67870U 26034W   26064.66667824 -.00030697  00000+0 -15235-3 0  9991
2 67870  53.1595 231.3310 0000370  44.9267 297.2210 15.80900515  3216
STARLINK-36769          
1 67871U 26034X   26064.66667824 -.00002065  00000+0 -69196-5 0  9997
2 67871  53.1593 231.3400 0001232  52.8250 285.0635 15.80879091  3213
STARLINK-36786          
1 67872U 26034Y   26064.66667824 -.00054118  00000+0 -27199-3 0  9999
2 67872  53.1596 231.3228 0001178  74.9554 271.4651 15.80901897  3213
STARLINK-36783          
1 67873U 26034Z   26064.66667824 -.00080849  00000+0 -40910-3 0  9996
2 67873  53.1597 231.3131 0000808  85.5115 265.1800 15.80916497  3216
STARLINK-36730          
1 67874U 26034AA  26064.66667824 -.00022978  00000+0 -11309-3 0  9996
2 67874  53.1594 231.3049 0001187  62.6997 292.2691 15.80890813  3219
STARLINK-36727          
1 67875U 26034AB  26064.66667824 -.00109088  00000+0 -55467-3 0  9998
2 67875  53.1594 231.2954 0000761  80.4480 278.7806 15.80931280  3217
STARLINK-36743          
1 67876U 26034AC  26064.66667824 -.00095920  00000+0 -48682-3 0  9999
2 67876  53.1598 231.2863 0000586  81.2110 282.3066 15.80919148  3213
STARLINK-36784          
1 67877U 26034AD  26064.66667824  .00018842  00000+0  98807-4 0  9991
2 67877  53.1598 231.2776 0000762  37.2908 330.4996 15.80869826  3213
STARLINK-36689          
1 67878U 26034AE  26064.66667824 -.00016932  00000+0 -82345-4 0  9992
2 67878  53.1596 231.2689 0001094  72.6277 299.4275 15.80890872  3215
STARLINK-36818          
1 67879U 26035A   26064.66667824 -.00956842  29007-3 -23198-2 0  9998
2 67879  97.2766 356.6935 0001308  98.0525  82.7096 15.96326810  3112
STARLINK-36821          
1 67880U 26035B   26064.66667824 -.00964307  29476-3 -23191-2 0  9998
2 67880  97.2761 356.6968 0001271  98.2075  89.5770 15.96476891  3115
STARLINK-36808          
1 67881U 26035C   26064.66667824 -.00966693  29591-3 -23331-2 0  9993
2 67881  97.2761 356.6946 0001283 102.6576  80.8175 15.96411772  3111
STARLINK-36817          
1 67882U 26035D   26064.66667824 -.00968138  29742-3 -23094-2 0  9994
2 67882  97.2751 356.6998 0001236  88.3058 107.9226 15.96627949  3114
STARLINK-36856          
1 67883U 26035E   26064.66667824 -.00961911  29363-3 -23044-2 0  9991
2 67883  97.2758 356.6982 0001096  86.7006 105.5767 15.96548547  3114
