[{"OBJECT_NAME":"STARLINK-36762","OBJECT_ID":"2026-034U","EPOCH":"2026-03-05T16:00:00.999936","MEAN_MOTION":15.81054414,"ECCENTRICITY":0.0001164,"INCLINATION":53.1633,"RA_OF_ASC_NODE":231.3581,"ARG_OF_PERICENTER":89.7845,"MEAN_ANOMALY":239.6348,"EPHEMERIS_TYPE":0,"CLASSIFICATION_TYPE":"U","NORAD_CAT_ID":67868,"ELEMENT_SET_NO":999,"REV_AT_EPOCH":321,"BSTAR":-0.0020135,"MEAN_MOTION_DOT":-0.00384171,"MEAN_MOTION_DDOT":0},{"OBJECT_NAME":"STARLINK-36779","OBJECT_ID":"2026-034V","EPOCH":"2026-03-05T16:00:00.999936","MEAN_MOTION":15.80900567,"ECCENTRICITY":0.0001249,"INCLINATION":53.1595,"RA_OF_ASC_NODE":231.3488,"ARG_OF_PERICENTER":84.3046,"MEAN_ANOMALY":249.3047,"EPHEMERIS_TYPE":0,"CLASSIFICATION_TYPE":"U","NORAD_CAT_ID":67869,"ELEMENT_SET_NO":999,"REV_AT_EPOCH":321,"BSTAR":-0.00030301,"MEAN_MOTION_DOT":-0.00060165,"MEAN_MOTION_DDOT":0},{"OBJECT_NAME":"STARLINK-36770","OBJECT_ID":"2026-034W","EPOCH":"2026-03-05T16:00:00.999936","MEAN_MOTION":15.80900515,"ECCENTRICITY":3.7e-5,"INCLINATION":53.1595,"RA_OF_ASC_NODE":231.331,"ARG_OF_PERICENTER":44.9267,"MEAN_ANOMALY":297.221,"EPHEMERIS_TYPE":0,"CLASSIFICATION_TYPE":"U","NORAD_CAT_ID":67870,"ELEMENT_SET_NO":999,"REV_AT_EPOCH":321,"BSTAR":-0.00015235,"MEAN_MOTION_DOT":-0.00030697,"MEAN_MOTION_DDOT":0},{"OBJECT_NAME":"STARLINK-36769","OBJECT_ID":"2026-034X","EPOCH":"2026-03-05T16:00:00.999936","MEAN_MOTION":15.80879091,"ECCENTRICITY":0.0001232,"INCLINATION":53.1593,"RA_OF_ASC_NODE":231.34,"ARG_OF_PERICENTER":52.825,"MEAN_ANOMALY":285.0635,"EPHEMERIS_TYPE":0,"CLASSIFICATION_TYPE":"U","NORAD_CAT_ID":67871,"ELEMENT_SET_NO":999,"REV_AT_EPOCH":321,"BSTAR":-6.9196e-6,"MEAN_MOTION_DOT":-2.065e-5,"MEAN_MOTION_DDOT":0},{"OBJECT_NAME":"STARLINK-36786","OBJECT_ID":"2026-034Y","EPOCH":"2026-03-05T16:00:00.999936","MEAN_MOTION":15.80901897,"ECCENTRICITY":0.0001178,"INCLINATION":53.1596,"RA_OF_ASC_NODE":231.3228,"ARG_OF_PERICENTER":74.9554,"MEAN_ANOMALY":271.4651,"EPHEMERIS_TYPE":0,"CLASSIFICATION_TYPE":"U","NORAD_CAT_ID":67872,"ELEMENT_SET_NO":999,"REV_AT_EPOCH":321,"BSTAR":-0.00027199,"MEAN_MOTION_DOT":-0.00054118,"MEAN_MOTION_DDOT":0},{"OBJECT_NAME":"STARLINK-36783","OBJECT_ID":"2026-034Z","EPOCH":"2026-03-05T16:00:00.999936","MEAN_MOTION":15.80916497,"ECCENTRICITY":8.08e-5,"INCLINATION":53.1597,"RA_OF_ASC_NODE":231.3131,"ARG_OF_PERICENTER":85.5115,"MEAN_ANOMALY":265.18,"EPHEMERIS_TYPE":0,"CLASSIFICATION_TYPE":"U","NORAD_CAT_ID":67873,"ELEMENT_SET_NO":999,"REV_AT_EPOCH":321,"BSTAR":-0.0004091,"MEAN_MOTION_DOT":-0.00080849,"MEAN_MOTION_DDOT":0},{"OBJECT_NAME":"STARLINK-36730","OBJECT_ID":"2026-034AA","EPOCH":"2026-03-05T16:00:00.999936","MEAN_MOTION":15.80890813,"ECCENTRICITY":0.0001187,"INCLINATION":53.1594,"RA_OF_ASC_NODE":231.3049,"ARG_OF_PERICENTER":62.6997,"MEAN_ANOMALY":292.2691,"EPHEMERIS_TYPE":0,"CLASSIFICATION_TYPE":"U","NORAD_CAT_ID":67874,"ELEMENT_SET_NO":999,"REV_AT_EPOCH":321,"BSTAR":-0.00011309,"MEAN_MOTION_DOT":-0.00022978,"MEAN_MOTION_DDOT":0},{"OBJECT_NAME":"STARLINK-36727","OBJECT_ID":"2026-034AB","EPOCH":"2026-03-05T16:00:00.999936","MEAN_MOTION":15.8093128,"ECCENTRICITY":7.61e-5,"INCLINATION":53.1594,"RA_OF_ASC_NODE":231.2954,"ARG_OF_PERICENTER":80.448,"MEAN_ANOMALY":278.7806,"EPHEMERIS_TYPE":0,"CLASSIFICATION_TYPE":"U","NORAD_CAT_ID":67875,"ELEMENT_SET_NO":999,"REV_AT_EPOCH":321,"BSTAR":-0.00055467,"MEAN_MOTION_DOT":-0.00109088,"MEAN_MOTION_DDOT":0},{"OBJECT_NAME":"STARLINK-36743","OBJECT_ID":"2026-034AC","EPOCH":"2026-03-05T16:00:00.999936","MEAN_MOTION":15.80919148,"ECCENTRICITY":5.86e-5,"INCLINATION":53.1598,"RA_OF_ASC_NODE":231.2863,"ARG_OF_PERICENTER":81.211,"MEAN_ANOMALY":282.3066,"EPHEMERIS_TYPE":0,"CLASSIFICATION_TYPE":"U","NORAD_CAT_ID":67876,"ELEMENT_SET_NO":999,"REV_AT_EPOCH":321,"BSTAR":-0.00048682,"MEAN_MOTION_DOT":-0.0009592,"MEAN_MOTION_DDOT":0},{"OBJECT_NAME":"STARLINK-36784","OBJECT_ID":"2026-034AD","EPOCH":"2026-03-05T16:00:00.999936","MEAN_MOTION":15.80869826,"ECCENTRICITY":7.62e-5,"INCLINATION":53.1598,"RA_OF_ASC_NODE":231.2776,"ARG_OF_PERICENTER":37.2908,"MEAN_ANOMALY":330.4996,"EPHEMERIS_TYPE":0,"CLASSIFICATION_TYPE":"U","NORAD_CAT_ID":67877,"ELEMENT_SET_NO":999,"REV_AT_EPOCH":321,"BSTAR":9.8807e-5,"MEAN_MOTION_DOT":0.00018842,"MEAN_MOTION_DDOT":0},{"OBJECT_NAME":"STARLINK-36689","OBJECT_ID":"2026-034AE","EPOCH":"2026-03-05T16:00:00.999936","MEAN_MOTION":15.80890872,"ECCENTRICITY":0.0001094,"INCLINATION":53.1596,"RA_OF_ASC_NODE":231.2689,"ARG_OF_PERICENTER":72.6277,"MEAN_ANOMALY":299.4275,"EPHEMERIS_TYPE":0,"CLASSIFICATION_TYPE":"U","NORAD_CAT_ID":67878,"ELEMENT_SET_NO":999,"REV_AT_EPOCH":321,"BSTAR":-8.2345e-5,"MEAN_MOTION_DOT":-0.00016932,"MEAN_MOTION_DDOT":0},{"OBJECT_NAME":"STARLINK-36818","OBJECT_ID":"2026-035A","EPOCH":"2026-03-05T16:00:00.999936","MEAN_MOTION":15.9632681,"ECCENTRICITY":0.0001308,"INCLINATION":97.2766,"RA_OF_ASC_NODE":356.6935,"ARG_OF_PERICENTER":98.0525,"MEAN_ANOMALY":82.7096,"EPHEMERIS_TYPE":0,"CLASSIFICATION_TYPE":"U","NORAD_CAT_ID":67879,"ELEMENT_SET_NO":999,"REV_AT_EPOCH":311,"BSTAR":-0.0023198,"MEAN_MOTION_DOT":-0.00956842,"MEAN_MOTION_DDOT":0.00029007},{"OBJECT_NAME":"STARLINK-36821","OBJECT_ID":"2026-035B","EPOCH":"2026-03-05T16:00:00.999936","MEAN_MOTION":15.96476891,"ECCENTRICITY":0.0001271,"INCLINATION":97.2761,"RA_OF_ASC_NODE":356.6968,"ARG_OF_PERICENTER":98.2075,"MEAN_ANOMALY":89.577,"EPHEMERIS_TYPE":0,"CLASSIFICATION_TYPE":"U","NORAD_CAT_ID":67880,"ELEMENT_SET_NO":999,"REV_AT_EPOCH":311,"BSTAR":-0.0023191,"MEAN_MOTION_DOT":-0.00964307,"MEAN_MOTION_DDOT":0.00029476},{"OBJECT_NAME":"STARLINK-36808","OBJECT_ID":"2026-035C","EPOCH":"2026-03-05T16:00:00.999936","MEAN_MOTION":15.96411772,"ECCENTRICITY":0.0001283,"INCLINATION":97.2761,"RA_OF_ASC_NODE":356.6946,"ARG_OF_PERICENTER":102.6576,"MEAN_ANOMALY":80.8175,"EPHEMERIS_TYPE":0,"CLASSIFICATION_TYPE":"U","NORAD_CAT_ID":67881,"ELEMENT_SET_NO":999,"REV_AT_EPOCH":311,"BSTAR":-0.0023331,"MEAN_MOTION_DOT":-0.00966693,"MEAN_MOTION_DDOT":0.00029591},{"OBJECT_NAME":"STARLINK-36817","OBJECT_ID":"2026-035D","EPOCH":"2026-03-05T16:00:00.999936","MEAN_MOTION":15.96627949,"ECCENTRICITY":0.0001236,"INCLINATION":97.2751,"RA_OF_ASC_NODE":356.6998,"ARG_OF_PERICENTER":88.3058,"MEAN_ANOMALY":107.9226,"EPHEMERIS_TYPE":0,"CLASSIFICATION_TYPE":"U","NORAD_CAT_ID":67882,"ELEMENT_SET_NO":999,"REV_AT_EPOCH":311,"BSTAR":-0.0023094,"MEAN_MOTION_DOT":-0.00968138,"MEAN_MOTION_DDOT":0.00029742},{"OBJECT_NAME":"STARLINK-36856","OBJECT_ID":"2026-035E","EPOCH":"2026-03-05T16:00:00.999936","MEAN_MOTION":15.96548547,"ECCENTRICITY":0.0001096,"INCLINATION":97.2758,"RA_OF_ASC_NODE":356.6982,"ARG_OF_PERICENTER":86.7006,"MEAN_ANOMALY":105.5767,"EPHEMERIS_TYPE":0,"CLASSIFICATION_TYPE":"U","NORAD_CAT_ID":67883,"ELEMENT_SET_NO":999,"REV_AT_EPOCH":311,"BSTAR":-0.0023044,"MEAN_MOTION_DOT":-0.00961911,"MEAN_MOTION_DDOT":0.00029363}]
